{"type":"FeatureCollection","features":[{"type":"Feature","properties":{"tiles":82},"geometry":{"type":"MultiPolygon","coordinates":[[[[1.85386,48.29478],[1.92127,48.29541],[1.92219,48.25043],[1.92311,48.20544],[1.92403,48.16046],[1.92494,48.11547],[1.99213,48.11606],[2.05931,48.11662],[2.1265,48.11714],[2.19369,48.11761],[2.26088,48.11805],[2.32807,48.11846],[2.39526,48.11882],[2.46245,48.11915],[2.52964,48.11943],[2.59683,48.11968],[2.66403,48.11989],[2.73122,48.12006],[2.79842,48.1202],[2.86561,48.12029],[2.9328,48.12035],[3.0,48.12037],[3.0672,48.12035],[3.13439,48.12029],[3.20158,48.1202],[3.26878,48.12006],[3.26901,48.16505],[3.26924,48.21004],[3.26947,48.25503],[3.2697,48.30002],[3.33712,48.29985],[3.40454,48.29964],[3.47197,48.29939],[3.53939,48.2991],[3.53985,48.34408],[3.54031,48.38907],[3.54077,48.43405],[3.54124,48.47903],[3.60889,48.4787],[3.67654,48.47833],[3.74419,48.47793],[3.81184,48.47749],[3.81254,48.52246],[3.81323,48.56744],[3.81393,48.61241],[3.81463,48.65738],[3.74675,48.65783],[3.67887,48.65824],[3.61098,48.6586],[3.5431,48.65893],[3.54357,48.7039],[3.54403,48.74887],[3.5445,48.79384],[3.54497,48.83881],[3.54544,48.88377],[3.54591,48.92874],[3.54639,48.9737],[3.54686,49.01866],[3.4785,49.01895],[3.41015,49.0192],[3.34179,49.01942],[3.27343,49.01959],[3.27367,49.06455],[3.27391,49.1095],[3.27415,49.15446],[3.27438,49.19941],[3.20579,49.19955],[3.13719,49.19964],[3.0686,49.1997],[3.0,49.19972],[2.9314,49.1997],[2.86281,49.19964],[2.79421,49.19955],[2.72562,49.19941],[2.65702,49.19923],[2.58843,49.19902],[2.51983,49.19877],[2.45124,49.19847],[2.38265,49.19814],[2.31406,49.19777],[2.24547,49.19736],[2.17688,49.19691],[2.17616,49.24186],[2.17544,49.28681],[2.17473,49.33175],[2.17401,49.37669],[2.10518,49.3762],[2.03635,49.37567],[1.96753,49.3751],[1.89871,49.3745],[1.82989,49.37385],[1.76107,49.37317],[1.69225,49.37244],[1.62343,49.37168],[1.62463,49.32674],[1.62583,49.2818],[1.62702,49.23686],[1.62822,49.19191],[1.55964,49.19111],[1.49107,49.19027],[1.4225,49.1894],[1.35393,49.18848],[1.35536,49.14353],[1.35679,49.09859],[1.35821,49.05364],[1.35963,49.00869],[1.36105,48.96374],[1.36247,48.91879],[1.36388,48.87383],[1.36529,48.82888],[1.3667,48.78392],[1.36811,48.73896],[1.36951,48.694],[1.37091,48.64903],[1.37231,48.60407],[1.37371,48.5591],[1.3751,48.51413],[1.37649,48.46916],[1.44412,48.47007],[1.51175,48.47093],[1.57938,48.47176],[1.64702,48.47255],[1.64818,48.42758],[1.64933,48.3826],[1.65049,48.33762],[1.65164,48.29265],[1.71904,48.29339],[1.78645,48.2941],[1.85386,48.29478]]],[[[4.60847,45.76815],[4.54415,45.76905],[4.54289,45.72403],[4.54164,45.67902],[4.54038,45.634],[4.53913,45.58899],[4.53788,45.54397],[4.53664,45.49896],[4.53539,45.45394],[4.53415,45.40893],[4.53291,45.36391],[4.53167,45.3189],[4.53043,45.27389],[4.5292,45.22887],[4.5929,45.22798],[4.65659,45.22706],[4.72029,45.22609],[4.78398,45.2251],[4.84767,45.22406],[4.91136,45.22299],[4.97505,45.22188],[5.03873,45.22074],[5.03709,45.17573],[5.03545,45.13073],[5.03381,45.08572],[5.03217,45.04072],[5.09565,45.03954],[5.15912,45.03833],[5.22259,45.03708],[5.28606,45.03579],[5.28423,44.99079],[5.28239,44.94579],[5.28056,44.90079],[5.27873,44.8558],[5.27691,44.8108],[5.27509,44.7658],[5.27327,44.7208],[5.27145,44.67581],[5.33451,44.6745],[5.39757,44.67315],[5.46062,44.67176],[5.52367,44.67034],[5.58672,44.66889],[5.64976,44.66739],[5.7128,44.66587],[5.77584,44.6643],[5.83887,44.6627],[5.9019,44.66107],[5.96493,44.65939],[6.02795,44.65769],[6.09097,44.65594],[6.15399,44.65416],[6.217,44.65235],[6.28,44.6505],[6.28262,44.69547],[6.28525,44.74045],[6.28788,44.78542],[6.29051,44.8304],[6.35372,44.82851],[6.41692,44.82658],[6.48011,44.82461],[6.5433,44.82261],[6.54614,44.86758],[6.54898,44.91255],[6.55183,44.95753],[6.55469,45.0025],[6.49129,45.00451],[6.4279,45.00648],[6.36449,45.00841],[6.30109,45.01031],[6.30374,45.05529],[6.3064,45.10027],[6.30906,45.14525],[6.31173,45.19024],[6.3144,45.23522],[6.31708,45.2802],[6.31976,45.32518],[6.32244,45.37016],[6.32513,45.41515],[6.32783,45.46013],[6.33052,45.50511],[6.33323,45.5501],[6.2692,45.55198],[6.20517,45.55382],[6.14113,45.55563],[6.07709,45.5574],[6.01305,45.55914],[5.949,45.56084],[5.88495,45.5625],[5.8209,45.56413],[5.82319,45.60912],[5.82548,45.65412],[5.82778,45.69911],[5.83009,45.74411],[5.76582,45.7457],[5.70155,45.74726],[5.63727,45.74878],[5.573,45.75027],[5.57509,45.79527],[5.57719,45.84027],[5.5793,45.88527],[5.5814,45.93027],[5.51691,45.93173],[5.45242,45.93314],[5.38792,45.93452],[5.32342,45.93586],[5.25892,45.93717],[5.19441,45.93844],[5.1299,45.93967],[5.06539,45.94087],[5.00087,45.94203],[4.93635,45.94315],[4.87183,45.94424],[4.80731,45.94529],[4.80584,45.90027],[4.80436,45.85526],[4.80289,45.81025],[4.80142,45.76523],[4.73711,45.76624],[4.67279,45.76721],[4.60847,45.76815]]]]}}]}